CCSDS_OMM_VERS = 2.0
CREATION_DATE  = 
ORIGINATOR     = 

OBJECT_NAME    = ERS-1
OBJECT_ID      = 1991-050A
CENTER_NAME    = EARTH
REF_FRAME      = TEME
TIME_SYSTEM    = UTC
MEAN_ELEMENT_THEORY = SGP/SGP4

EPOCH          = 2026-04-05T14:20:59.032608
MEAN_MOTION    = 14.39471800
ECCENTRICITY   = .00329703
INCLINATION    = 98.7857
RA_OF_ASC_NODE = 114.5067
ARG_OF_PERICENTER = 121.5690
MEAN_ANOMALY   = 238.8723

EPHEMERIS_TYPE = 0
CLASSIFICATION_TYPE = U
NORAD_CAT_ID   = 21574
ELEMENT_SET_NO = 999
REV_AT_EPOCH   = 81960
BSTAR          = .16446018E-3
MEAN_MOTION_DOT = .469E-5
MEAN_MOTION_DDOT = 0

CCSDS_OMM_VERS = 2.0
CREATION_DATE  = 
ORIGINATOR     = 

OBJECT_NAME    = ARIANE 40 R/B
OBJECT_ID      = 1991-050F
CENTER_NAME    = EARTH
REF_FRAME      = TEME
TIME_SYSTEM    = UTC
MEAN_ELEMENT_THEORY = SGP/SGP4

EPOCH          = 2026-04-05T09:02:37.058784
MEAN_MOTION    = 14.42914774
ECCENTRICITY   = .00030776
INCLINATION    = 98.1957
RA_OF_ASC_NODE = 146.6044
ARG_OF_PERICENTER = 18.3444
MEAN_ANOMALY   = 341.7858

EPHEMERIS_TYPE = 0
CLASSIFICATION_TYPE = U
NORAD_CAT_ID   = 21610
ELEMENT_SET_NO = 999
REV_AT_EPOCH   = 82284
BSTAR          = .14831391E-3
MEAN_MOTION_DOT = .454E-5
MEAN_MOTION_DDOT = 0

CCSDS_OMM_VERS = 2.0
CREATION_DATE  = 
ORIGINATOR     = 

OBJECT_NAME    = INTERCOSMOS 25
OBJECT_ID      = 1991-086A
CENTER_NAME    = EARTH
REF_FRAME      = TEME
TIME_SYSTEM    = UTC
MEAN_ELEMENT_THEORY = SGP/SGP4

EPOCH          = 2026-04-05T13:36:46.277856
MEAN_MOTION    = 12.12097507
ECCENTRICITY   = .14862487
INCLINATION    = 82.6000
RA_OF_ASC_NODE = 293.7570
ARG_OF_PERICENTER = 59.0218
MEAN_ANOMALY   = 314.8409

EPHEMERIS_TYPE = 0
CLASSIFICATION_TYPE = U
NORAD_CAT_ID   = 21819
ELEMENT_SET_NO = 999
REV_AT_EPOCH   = 49994
BSTAR          = .39395783E-3
MEAN_MOTION_DOT = .2038E-4
MEAN_MOTION_DDOT = 0

CCSDS_OMM_VERS = 2.0
CREATION_DATE  = 
ORIGINATOR     = 

OBJECT_NAME    = SL-8 R/B
OBJECT_ID      = 1992-008B
CENTER_NAME    = EARTH
REF_FRAME      = TEME
TIME_SYSTEM    = UTC
MEAN_ELEMENT_THEORY = SGP/SGP4

EPOCH          = 2026-04-05T11:33:19.693152
MEAN_MOTION    = 13.75969936
ECCENTRICITY   = .00357373
INCLINATION    = 82.9244
RA_OF_ASC_NODE = 247.8435
ARG_OF_PERICENTER = 61.1025
MEAN_ANOMALY   = 359.0631

EPHEMERIS_TYPE = 0
CLASSIFICATION_TYPE = U
NORAD_CAT_ID   = 21876
ELEMENT_SET_NO = 999
REV_AT_EPOCH   = 71310
BSTAR          = .14522121E-4
MEAN_MOTION_DOT = .3E-6
MEAN_MOTION_DDOT = 0

CCSDS_OMM_VERS = 2.0
CREATION_DATE  = 
ORIGINATOR     = 

OBJECT_NAME    = SL-8 R/B
OBJECT_ID      = 1992-020B
CENTER_NAME    = EARTH
REF_FRAME      = TEME
TIME_SYSTEM    = UTC
MEAN_ELEMENT_THEORY = SGP/SGP4

EPOCH          = 2026-04-05T14:47:49.805088
MEAN_MOTION    = 13.75550706
ECCENTRICITY   = .00281095
INCLINATION    = 82.9289
RA_OF_ASC_NODE = 133.7669
ARG_OF_PERICENTER = 220.3132
MEAN_ANOMALY   = 254.3921

EPHEMERIS_TYPE = 0
CLASSIFICATION_TYPE = U
NORAD_CAT_ID   = 21938
ELEMENT_SET_NO = 999
REV_AT_EPOCH   = 70483
BSTAR          = -.480517E-6
MEAN_MOTION_DOT = .15E-6
MEAN_MOTION_DDOT = 0

CCSDS_OMM_VERS = 2.0
CREATION_DATE  = 
ORIGINATOR     = 

OBJECT_NAME    = USA 81
OBJECT_ID      = 1992-023A
CENTER_NAME    = EARTH
REF_FRAME      = TEME
TIME_SYSTEM    = UTC
MEAN_ELEMENT_THEORY = SGP/SGP4

EPOCH          = 2026-04-05T13:17:40.847136
MEAN_MOTION    = 14.32377322
ECCENTRICITY   = .00014732
INCLINATION    = 85.0038
RA_OF_ASC_NODE = 115.9358
ARG_OF_PERICENTER = 71.0311
MEAN_ANOMALY   = 289.1041

EPHEMERIS_TYPE = 0
CLASSIFICATION_TYPE = U
NORAD_CAT_ID   = 21949
ELEMENT_SET_NO = 999
REV_AT_EPOCH   = 9863
BSTAR          = .73869381E-4
MEAN_MOTION_DOT = .219E-5
MEAN_MOTION_DDOT = 0

CCSDS_OMM_VERS = 2.0
CREATION_DATE  = 
ORIGINATOR     = 

OBJECT_NAME    = COSMOS 2219
OBJECT_ID      = 1992-076A
CENTER_NAME    = EARTH
REF_FRAME      = TEME
TIME_SYSTEM    = UTC
MEAN_ELEMENT_THEORY = SGP/SGP4

EPOCH          = 2026-04-05T14:43:42.093696
MEAN_MOTION    = 14.14088522
ECCENTRICITY   = .0017633
INCLINATION    = 71.0604
RA_OF_ASC_NODE = 321.7891
ARG_OF_PERICENTER = 166.0149
MEAN_ANOMALY   = 194.1466

EPHEMERIS_TYPE = 0
CLASSIFICATION_TYPE = U
NORAD_CAT_ID   = 22219
ELEMENT_SET_NO = 999
REV_AT_EPOCH   = 72218
BSTAR          = -.51399534E-4
MEAN_MOTION_DOT = -.145E-5
MEAN_MOTION_DDOT = 0

CCSDS_OMM_VERS = 2.0
CREATION_DATE  = 
ORIGINATOR     = 

OBJECT_NAME    = SL-16 R/B
OBJECT_ID      = 1992-076B
CENTER_NAME    = EARTH
REF_FRAME      = TEME
TIME_SYSTEM    = UTC
MEAN_ELEMENT_THEORY = SGP/SGP4

EPOCH          = 2026-04-05T12:48:14.881248
MEAN_MOTION    = 14.16862532
ECCENTRICITY   = .00109797
INCLINATION    = 70.9981
RA_OF_ASC_NODE = 131.8309
ARG_OF_PERICENTER = 47.1103
MEAN_ANOMALY   = 60.3113

EPHEMERIS_TYPE = 0
CLASSIFICATION_TYPE = U
NORAD_CAT_ID   = 22220
ELEMENT_SET_NO = 999
REV_AT_EPOCH   = 72563
BSTAR          = -.9852578E-5
MEAN_MOTION_DOT = -.68E-6
MEAN_MOTION_DDOT = 0

CCSDS_OMM_VERS = 2.0
CREATION_DATE  = 
ORIGINATOR     = 

OBJECT_NAME    = COSMOS 2221
OBJECT_ID      = 1992-080A
CENTER_NAME    = EARTH
REF_FRAME      = TEME
TIME_SYSTEM    = UTC
MEAN_ELEMENT_THEORY = SGP/SGP4

EPOCH          = 2026-04-05T12:30:34.214976
MEAN_MOTION    = 14.96328163
ECCENTRICITY   = .00156567
INCLINATION    = 82.5019
RA_OF_ASC_NODE = 253.3705
ARG_OF_PERICENTER = 101.8654
MEAN_ANOMALY   = 258.4325

EPHEMERIS_TYPE = 0
CLASSIFICATION_TYPE = U
NORAD_CAT_ID   = 22236
ELEMENT_SET_NO = 999
REV_AT_EPOCH   = 78480
BSTAR          = .28415289E-3
MEAN_MOTION_DOT = .3246E-4
MEAN_MOTION_DDOT = 0

CCSDS_OMM_VERS = 2.0
CREATION_DATE  = 
ORIGINATOR     = 

OBJECT_NAME    = SL-16 R/B
OBJECT_ID      = 1992-093B
CENTER_NAME    = EARTH
REF_FRAME      = TEME
TIME_SYSTEM    = UTC
MEAN_ELEMENT_THEORY = SGP/SGP4

EPOCH          = 2026-04-05T07:28:26.425344
MEAN_MOTION    = 14.15456095
ECCENTRICITY   = .00066582
INCLINATION    = 71.0217
RA_OF_ASC_NODE = 308.3819
ARG_OF_PERICENTER = 268.2405
MEAN_ANOMALY   = 91.7956

EPHEMERIS_TYPE = 0
CLASSIFICATION_TYPE = U
NORAD_CAT_ID   = 22285
ELEMENT_SET_NO = 999
REV_AT_EPOCH   = 71692
BSTAR          = -.30864112E-4
MEAN_MOTION_DOT = -.108E-5
MEAN_MOTION_DDOT = 0

CCSDS_OMM_VERS = 2.0
CREATION_DATE  = 
ORIGINATOR     = 

OBJECT_NAME    = COSMOS 2228
OBJECT_ID      = 1992-094A
CENTER_NAME    = EARTH
REF_FRAME      = TEME
TIME_SYSTEM    = UTC
MEAN_ELEMENT_THEORY = SGP/SGP4

EPOCH          = 2026-04-05T14:04:27.811200
MEAN_MOTION    = 14.97344698
ECCENTRICITY   = .00173335
INCLINATION    = 82.5201
RA_OF_ASC_NODE = 211.5585
ARG_OF_PERICENTER = 207.3228
MEAN_ANOMALY   = 152.7085

EPHEMERIS_TYPE = 0
CLASSIFICATION_TYPE = U
NORAD_CAT_ID   = 22286
ELEMENT_SET_NO = 999
REV_AT_EPOCH   = 78008
BSTAR          = .32563529E-3
MEAN_MOTION_DOT = .3816E-4
MEAN_MOTION_DDOT = 0

CCSDS_OMM_VERS = 2.0
CREATION_DATE  = 
ORIGINATOR     = 

OBJECT_NAME    = SL-16 R/B
OBJECT_ID      = 1993-016B
CENTER_NAME    = EARTH
REF_FRAME      = TEME
TIME_SYSTEM    = UTC
MEAN_ELEMENT_THEORY = SGP/SGP4

EPOCH          = 2026-04-05T13:35:50.762400
MEAN_MOTION    = 14.15309504
ECCENTRICITY   = .00124261
INCLINATION    = 71.0072
RA_OF_ASC_NODE = 158.7359
ARG_OF_PERICENTER = 279.8652
MEAN_ANOMALY   = 80.1067

EPHEMERIS_TYPE = 0
CLASSIFICATION_TYPE = U
NORAD_CAT_ID   = 22566
ELEMENT_SET_NO = 999
REV_AT_EPOCH   = 70597
BSTAR          = .20643698E-3
MEAN_MOTION_DOT = .355E-5
MEAN_MOTION_DDOT = 0

