ERS-1                   
1 21574U 91050A   26095.59790547  .00000469  00000+0  16446-3 0  9994
2 21574  98.7857 114.5067 0032970 121.5690 238.8723 14.39471800819608
ARIANE 40 R/B           
1 21610U 91050F   26095.37681781  .00000454  00000+0  14831-3 0  9990
2 21610  98.1957 146.6044 0003077  18.3444 341.7858 14.42914774822840
INTERCOSMOS 25          
1 21819U 91086A   26095.56720229  .00002038  00000+0  39396-3 0  9995
2 21819  82.6000 293.7570 1486248  59.0218 314.8409 12.12097507499948
SL-8 R/B                
1 21876U 92008B   26095.48147793  .00000030  00000+0  14522-4 0  9998
2 21876  82.9244 247.8435 0035737  61.1025 359.0631 13.75969936713105
SL-8 R/B                
1 21938U 92020B   26095.61654867  .00000015  00000+0 -48052-6 0  9992
2 21938  82.9289 133.7669 0028109 220.3132 254.3921 13.75550706704838
USA 81                  
1 21949U 92023A   26095.55394499  .00000219  00000+0  73869-4 0  9999
2 21949  85.0038 115.9358 0001473  71.0311 289.1041 14.32377322 98636
COSMOS 2219             
1 22219U 92076A   26095.61368164 -.00000145  00000+0 -51400-4 0  9992
2 22219  71.0604 321.7891 0017633 166.0149 194.1466 14.14088522722180
SL-16 R/B               
1 22220U 92076B   26095.53350557 -.00000068  00000+0 -98526-5 0  9997
2 22220  70.9981 131.8309 0010979  47.1103  60.3113 14.16862532725636
COSMOS 2221             
1 22236U 92080A   26095.52122934  .00003246  00000+0  28415-3 0  9991
2 22236  82.5019 253.3705 0015656 101.8654 258.4325 14.96328163784804
SL-16 R/B               
1 22285U 92093B   26095.31141696 -.00000108  00000+0 -30864-4 0  9990
2 22285  71.0217 308.3819 0006658 268.2405  91.7956 14.15456095716925
COSMOS 2228             
1 22286U 92094A   26095.58643300  .00003816  00000+0  32564-3 0  9995
2 22286  82.5201 211.5585 0017333 207.3228 152.7085 14.97344698780084
SL-16 R/B               
1 22566U 93016B   26095.56655975  .00000355  00000+0  20644-3 0  9991
2 22566  71.0072 158.7359 0012426 279.8652  80.1067 14.15309504705974
